CTC2_L_00002001-01
1 38534U 25963AI  26070.40841435  .00000000  00000+0  00000-0 0  9991
2 38534  80.0000   0.0000 0000000   0.0000   0.0000 15.90815360    12
CTC2_L_00002001-02
1 38535U 24613LW  26070.40841435  .00000000  00000+0  00000-0 0  9993
2 38535  80.0000   0.0000 0000000   0.0000  90.0000 15.90815360    12
CTC2_L_00002001-03
1 38536U 26441JR  26070.40841435  .00000000  00000+0  00000-0 0  9995
2 38536  80.0000   0.0000 0000000   0.0000 180.0000 15.90815360    13
CTC2_L_00002001-04
1 38537U 25172MJ  26070.40841435  .00000000  00000+0  00000-0 0  9996
2 38537  80.0000   0.0000 0000000   0.0000 270.0000 15.90815360    14
CTC2_L_00002002-01
1 38538U 22478CL  26070.40841435  .00000000  00000+0  00000-0 0  9993
2 38538  80.0000  12.0000 0000000   0.0000  12.0000 15.90815360    12
CTC2_L_00002002-02
1 38539U 22287KR  26070.40841435  .00000000  00000+0  00000-0 0  9992
2 38539  80.0000  12.0000 0000000   0.0000 102.0000 15.90815360    13
CTC2_L_00002002-03
1 38540U 24595QS  26070.40841435  .00000000  00000+0  00000-0 0  9998
2 38540  80.0000  12.0000 0000000   0.0000 192.0000 15.90815360    14
CTC2_L_00002002-04
1 38541U 24629WZ  26070.40841435  .00000000  00000+0  00000-0 0  9997
2 38541  80.0000  12.0000 0000000   0.0000 282.0000 15.90815360    15
CTC2_L_00002003-01
1 38542U 25057MB  26070.40841435  .00000000  00000+0  00000-0 0  9994
2 38542  80.0000  24.0000 0000000   0.0000  24.0000 15.90815360    13
CTC2_L_00002003-02
1 38543U 26602IS  26070.40841435  .00000000  00000+0  00000-0 0  9992
2 38543  80.0000  24.0000 0000000   0.0000 114.0000 15.90815360    14
CTC2_L_00002003-03
1 38544U 22153SY  26070.40841435  .00000000  00000+0  00000-0 0  9990
2 38544  80.0000  24.0000 0000000   0.0000 204.0000 15.90815360    15
CTC2_L_00002003-04
1 38545U 22486QY  26070.40841435  .00000000  00000+0  00000-0 0  9990
2 38545  80.0000  24.0000 0000000   0.0000 294.0000 15.90815360    15
CTC2_L_00002004-01
1 38546U 26355KM  26070.40841435  .00000000  00000+0  00000-0 0  9990
2 38546  80.0000  36.0000 0000000   0.0000  36.0000 15.90815360    13
CTC2_L_00002004-02
1 38547U 25670BW  26070.40841435  .00000000  00000+0  00000-0 0  9990
2 38547  80.0000  36.0000 0000000   0.0000 126.0000 15.90815360    14
CTC2_L_00002004-03
1 38548U 25912UD  26070.40841435  .00000000  00000+0  00000-0 0  9990
2 38548  80.0000  36.0000 0000000   0.0000 216.0000 15.90815360    15
CTC2_L_00002004-04
1 38549U 22583KB  26070.40841435  .00000000  00000+0  00000-0 0  9992
2 38549  80.0000  36.0000 0000000   0.0000 306.0000 15.90815360    16
CTC2_L_00002005-01
1 38550U 25837HS  26070.40841435  .00000000  00000+0  00000-0 0  9999
2 38550  80.0000  48.0000 0000000   0.0000  48.0000 15.90815360    14
CTC2_L_00002005-02
1 38551U 24872JR  26070.40841435  .00000000  00000+0  00000-0 0  9998
2 38551  80.0000  48.0000 0000000   0.0000 138.0000 15.90815360    15
CTC2_L_00002005-03
1 38552U 24339GN  26070.40841435  .00000000  00000+0  00000-0 0  9997
2 38552  80.0000  48.0000 0000000   0.0000 228.0000 15.90815360    16
CTC2_L_00002005-04
1 38553U 24250KB  26070.40841435  .00000000  00000+0  00000-0 0  9990
2 38553  80.0000  48.0000 0000000   0.0000 318.0000 15.90815360    17
CTC2_L_00002006-01
1 38554U 22325RQ  26070.40841435  .00000000  00000+0  00000-0 0  9992
2 38554  80.0000  60.0000 0000000   0.0000  60.0000 15.90815360    16
CTC2_L_00002006-02
1 38555U 25080SK  26070.40841435  .00000000  00000+0  00000-0 0  9994
2 38555  80.0000  60.0000 0000000   0.0000 150.0000 15.90815360    17
CTC2_L_00002006-03
1 38556U 24302MT  26070.40841435  .00000000  00000+0  00000-0 0  9991
2 38556  80.0000  60.0000 0000000   0.0000 240.0000 15.90815360    18
CTC2_L_00002006-04
1 38557U 23675VE  26070.40841435  .00000000  00000+0  00000-0 0  9994
2 38557  80.0000  60.0000 0000000   0.0000 330.0000 15.90815360    19
CTC2_L_00002007-01
1 38558U 24906TZ  26070.40841435  .00000000  00000+0  00000-0 0  9993
2 38558  80.0000  72.0000 0000000   0.0000  72.0000 15.90815360    16
CTC2_L_00002007-02
1 38559U 24279TE  26070.40841435  .00000000  00000+0  00000-0 0  9997
2 38559  80.0000  72.0000 0000000   0.0000 162.0000 15.90815360    17
CTC2_L_00002007-03
1 38560U 22945XS  26070.40841435  .00000000  00000+0  00000-0 0  9997
2 38560  80.0000  72.0000 0000000   0.0000 252.0000 15.90815360    19
CTC2_L_00002007-04
1 38561U 24129ZS  26070.40841435  .00000000  00000+0  00000-0 0  9994
2 38561  80.0000  72.0000 0000000   0.0000 342.0000 15.90815360    10
CTC2_L_00002008-01
1 38562U 26207LV  26070.40841435  .00000000  00000+0  00000-0 0  9994
2 38562  80.0000  84.0000 0000000   0.0000  84.0000 15.90815360    17
CTC2_L_00002008-02
1 38563U 26658GF  26070.40841435  .00000000  00000+0  00000-0 0  9995
2 38563  80.0000  84.0000 0000000   0.0000 174.0000 15.90815360    18
CTC2_L_00002008-03
1 38564U 25457VO  26070.40841435  .00000000  00000+0  00000-0 0  9992
2 38564  80.0000  84.0000 0000000   0.0000 264.0000 15.90815360    19
CTC2_L_00002008-04
1 38565U 25334MJ  26070.40841435  .00000000  00000+0  00000-0 0  9997
2 38565  80.0000  84.0000 0000000   0.0000 354.0000 15.90815360    10
CTC2_L_00002009-01
1 38566U 22546WO  26070.40841435  .00000000  00000+0  00000-0 0  9990
2 38566  80.0000  96.0000 0000000   0.0000  96.0000 15.90815360    17
CTC2_L_00002009-02
1 38567U 24242ZH  26070.40841435  .00000000  00000+0  00000-0 0  9996
2 38567  80.0000  96.0000 0000000   0.0000 186.0000 15.90815360    18
CTC2_L_00002009-03
1 38568U 24293FH  26070.40841435  .00000000  00000+0  00000-0 0  9993
2 38568  80.0000  96.0000 0000000   0.0000 276.0000 15.90815360    19
CTC2_L_00002009-04
1 38569U 25001MK  26070.40841435  .00000000  00000+0  00000-0 0  9992
2 38569  80.0000  96.0000 0000000   0.0000   6.0000 15.90815360    11
CTC2_L_00002010-01
1 38570U 25811IG  26070.40841435  .00000000  00000+0  00000-0 0  9993
2 38570  80.0000 108.0000 0000000   0.0000 108.0000 15.90815360    10
CTC2_L_00002010-02
1 38571U 25922PW  26070.40841435  .00000000  00000+0  00000-0 0  9997
2 38571  80.0000 108.0000 0000000   0.0000 198.0000 15.90815360    10
CTC2_L_00002010-03
1 38572U 26932AC  26070.40841435  .00000000  00000+0  00000-0 0  9990
2 38572  80.0000 108.0000 0000000   0.0000 288.0000 15.90815360    11
CTC2_L_00002010-04
1 38573U 25567DF  26070.40841435  .00000000  00000+0  00000-0 0  9994
2 38573  80.0000 108.0000 0000000   0.0000  18.0000 15.90815360    13
CTC2_L_00002011-01
1 38574U 26346YJ  26070.40841435  .00000000  00000+0  00000-0 0  9991
2 38574  80.0000 120.0000 0000000   0.0000 120.0000 15.90815360    12
CTC2_L_00002011-02
1 38575U 23123FU  26070.40841435  .00000000  00000+0  00000-0 0  9992
2 38575  80.0000 120.0000 0000000   0.0000 210.0000 15.90815360    13
CTC2_L_00002011-03
1 38576U 25815YF  26070.40841435  .00000000  00000+0  00000-0 0  9993
2 38576  80.0000 120.0000 0000000   0.0000 300.0000 15.90815360    14
CTC2_L_00002011-04
1 38577U 22625B   26070.40841435  .00000000  00000+0  00000-0 0  9990
2 38577  80.0000 120.0000 0000000   0.0000  30.0000 15.90815360    15
CTC2_L_00002012-01
1 38578U 24558VU  26070.40841435  .00000000  00000+0  00000-0 0  9998
2 38578  80.0000 132.0000 0000000   0.0000 132.0000 15.90815360    12
CTC2_L_00002012-02
1 38579U 23948QH  26070.40841435  .00000000  00000+0  00000-0 0  9991
2 38579  80.0000 132.0000 0000000   0.0000 222.0000 15.90815360    13
CTC2_L_00002012-03
1 38580U 23424IJ  26070.40841435  .00000000  00000+0  00000-0 0  9992
2 38580  80.0000 132.0000 0000000   0.0000 312.0000 15.90815360    15
CTC2_L_00002012-04
1 38581U 23788UD  26070.40841435  .00000000  00000+0  00000-0 0  9996
2 38581  80.0000 132.0000 0000000   0.0000  42.0000 15.90815360    16
CTC2_L_00002013-01
1 38582U 24833IZ  26070.40841435  .00000000  00000+0  00000-0 0  9999
2 38582  80.0000 144.0000 0000000   0.0000 144.0000 15.90815360    13
CTC2_L_00002013-02
1 38583U 22159VK  26070.40841435  .00000000  00000+0  00000-0 0  9999
2 38583  80.0000 144.0000 0000000   0.0000 234.0000 15.90815360    14
CTC2_L_00002013-03
1 38584U 23657FS  26070.40841435  .00000000  00000+0  00000-0 0  9994
2 38584  80.0000 144.0000 0000000   0.0000 324.0000 15.90815360    15
CTC2_L_00002013-04
1 38585U 25834NW  26070.40841435  .00000000  00000+0  00000-0 0  9994
2 38585  80.0000 144.0000 0000000   0.0000  54.0000 15.90815360    16
CTC2_L_00002014-01
1 38586U 22020PI  26070.40841435  .00000000  00000+0  00000-0 0  9999
2 38586  80.0000 156.0000 0000000   0.0000 156.0000 15.90815360    13
CTC2_L_00002014-02
1 38587U 26339OC  26070.40841435  .00000000  00000+0  00000-0 0  9997
2 38587  80.0000 156.0000 0000000   0.0000 246.0000 15.90815360    14
CTC2_L_00002014-03
1 38588U 22987GX  26070.40841435  .00000000  00000+0  00000-0 0  9993
2 38588  80.0000 156.0000 0000000   0.0000 336.0000 15.90815360    15
CTC2_L_00002014-04
1 38589U 22812RX  26070.40841435  .00000000  00000+0  00000-0 0  9991
2 38589  80.0000 156.0000 0000000   0.0000  66.0000 15.90815360    16
CTC2_L_00002015-01
1 38590U 22325AG  26070.40841435  .00000000  00000+0  00000-0 0  9992
2 38590  80.0000 168.0000 0000000   0.0000 168.0000 15.90815360    14
CTC2_L_00002015-02
1 38591U 26680LW  26070.40841435  .00000000  00000+0  00000-0 0  9991
2 38591  80.0000 168.0000 0000000   0.0000 258.0000 15.90815360    15
CTC2_L_00002015-03
1 38592U 22492Z   26070.40841435  .00000000  00000+0  00000-0 0  9999
2 38592  80.0000 168.0000 0000000   0.0000 348.0000 15.90815360    16
CTC2_L_00002015-04
1 38593U 22672BM  26070.40841435  .00000000  00000+0  00000-0 0  9990
2 38593  80.0000 168.0000 0000000   0.0000  78.0000 15.90815360    17
CTC2_L_00002016-01
1 38594U 22046ER  26070.40841435  .00000000  00000+0  00000-0 0  9996
2 38594  80.0000 180.0000 0000000   0.0000 180.0000 15.90815360    16
CTC2_L_00002016-02
1 38595U 24238TM  26070.40841435  .00000000  00000+0  00000-0 0  9992
2 38595  80.0000 180.0000 0000000   0.0000 270.0000 15.90815360    17
